{
  "norad_id": 40975,
  "name": "SNAP-3 JIMI",
  "history": [
    {
      "epoch": "2026-03-28T11:36:41.114880Z",
      "apogee_km": 635.5665392597593,
      "perigee_km": 489.9067530958009,
      "latitude_deg": 7.182112681542763e-05,
      "longitude_deg": 114.86082179479054,
      "height_km": 562.012412151718,
      "semi_major_axis_km": 6940.87364617778,
      "eccentricity": 0.0104929,
      "inclination_deg": 64.764,
      "raan_deg": 114.9357,
      "arg_perigee_deg": 88.5567,
      "mean_anomaly_deg": 272.7568,
      "mean_motion_rev_day": 15.01348638
    },
    {
      "epoch": "2026-03-29T05:11:48.009696Z",
      "apogee_km": 635.5261214994189,
      "perigee_km": 489.8795385066369,
      "latitude_deg": -7.504196063116336e-05,
      "longitude_deg": -151.95507603505078,
      "height_km": 561.5957031028548,
      "semi_major_axis_km": 6940.839830003028,
      "eccentricity": 0.010492,
      "inclination_deg": 64.764,
      "raan_deg": 112.6208,
      "arg_perigee_deg": 88.2547,
      "mean_anomaly_deg": 273.0583,
      "mean_motion_rev_day": 15.0135961
    }
  ]
}